#dP2021  8 29  0  0  0.00000000      97 __u+U IGS14 FIT  IAC
## 2173      0.00000000   900.00000000 59455 0.0000000000000
+  121   C01C02C03C04C05C06C07C09C10C11C12C13C14C16C19C20C21
+        C22C23C24C25C26C27C28C29C30C32C33C34C35C36C37C39C40
+        C41C42C43C44C45C46C60E01E02E03E04E05E07E08E09E11E12
+        E13E14E15E18E19E21E24E25E26E27E30E31E33E36G01G02G03
+        G04G05G06G07G08G09G10G12G13G14G15G16G17G18G19G20G21
+        G22G23G24G25G26G27G28G29G30G31G32J01J02J03J07R01R02
+        R03R04R05R07R08R09R11R12R13R14R15R16R17R18R19R20R21
+        R22R24  0  0  0  0  0  0  0  0  0  0  0  0  0  0  0
++         0  0  0  0  0  0  0  0  0  0  0  0  0  0  0  0  0
++         0  0  0  0  0  0  0  0  0  0  0  0  0  0  0  0  0
++         0  0  0  0  0  0  0  0  0  0  0  0  0  0  0  0  0
++         0  0  0  0  0  0  0  0  0  0  0  0  0  0  0  0  0
++         0  0  0  0  0  0  0  0  0  0  0  0  0  0  0  0  0
++         0  0  0  0  0  0  0  0  0  0  0  0  0  0  0  0  0
++         0  0  0  0  0  0  0  0  0  0  0  0  0  0  0  0  0
++         0  0  0  0  0  0  0  0  0  0  0  0  0  0  0  0  0
%c M  cc GPS ccc cccc cccc cccc cccc ccccc ccccc ccccc ccccc
%c cc cc ccc ccc cccc cccc cccc cccc ccccc ccccc ccccc ccccc
%f  1.2500000  1.025000000  0.00000000000  0.000000000000000
%f  0.0000000  0.000000000  0.00000000000  0.000000000000000
%i    0    0    0    0      0      0      0      0         0
%i    0    0    0    0      0      0      0      0         0
/* INFORMATION & ANALYSIS CENTER (IAC)            FINAL DATA
/* S/V CLOCKS ARE ALIGNED TO GNSS TIME                      
/* G:C1WC2W R:C1PC2P E:C1XC5X C:C2IC6I J:C1CC2S             
/* PCV:IGS14_2163 OL/AL:FES2004  NONE     YN ORB:CoN CLK:CoN
*  2021 08 29  9 15  0.00000000
PC01 -34348.304564  24430.185770   -150.040018   -126.395606
PC02   4350.362721  41972.882833    849.382972    381.494466
PC03 -14847.189919  39487.763685    514.416998   -266.163912
PC04 -39642.332286  14353.548678   -459.885419   -222.406967
PC05  21879.399763  36036.221032   1218.114743     77.878314
PC06  -1274.723867  34789.758712  23905.067196    822.625490
PC07 -12903.473518  25894.108829 -30698.635399    -42.263098
PC09   5774.621127  38997.543543  15873.347027    -64.062148
PC10  -6178.963344  26524.307396 -32000.072347     -4.435901
PC11  -4159.855628  20612.454896 -18260.470174    544.304153
PC12 -15122.002400   3470.165059 -23165.569361    770.301247
PC13  -9532.999657  37696.931377  16074.760358    390.443369
PC14 -12343.136527  13573.691301  21061.180339    684.406384
PC16  -2431.774159  33503.285540  25751.255459   -835.982082
PC19   1021.195632 -15804.985233 -22957.089565    964.778901
PC20  19840.375623  -9940.783086 -16892.935438   -810.671886
PC21 -27825.185046  -2262.655190    354.294234   -935.525196
PC22 -19051.695716 -12762.383734 -15927.398630   -950.330257
PC23   8430.997338  15144.625183 -21855.822578   -960.916695
PC24 -19369.391611  18974.436906   6552.535173   -964.269191
PC25  -6613.641242  24500.195071 -11586.734306   -863.091253
PC26 -19586.040220   4095.141530  19434.611883    857.660387
PC27  18127.806483   6624.093094  20138.531454    588.613029
PC28  14882.314207  22713.310577   6405.970429    -32.890117
PC29  -3856.975713 -25323.982266  11067.956548    439.805977
PC30  10653.906098 -13159.822279  22172.721377    478.942937
PC32  27819.657917   2099.863405   -278.238163   -937.099109
PC33  -1083.545871  15837.336986  22950.359420   -966.569179
PC34 -10175.795175  13953.063357 -21934.634739   -594.274333
PC35 -15511.774520 -22386.550316  -6024.120673   -117.402232
PC36   7488.965722 -24411.962060  11289.770531   -750.357506
PC37  19384.542964  -2720.311169 -19870.694252   -862.410776
PC39  -6479.957758  28966.631116  29997.682490     32.963042
PC40 -18903.725665  19457.121839 -32319.743750    194.441347
PC41  18748.166169  12894.114443  16200.398236   -948.674677
PC42 -20535.495666   9581.824174  16335.055449   -941.955872
PC43   3243.821723  25217.433642 -11529.257049   -889.733891
PC44 -18481.849254  -6118.869782 -19993.877311    365.120406
PC45  -8501.452322 -14938.730816  21999.976388    533.300865
PC46  18926.744458 -19781.647579  -5484.358932    110.110644
PC60   7279.007883  41509.287234  -1029.732491     -0.975775
PE01 -27160.970070  11425.805249   2826.983534  -1181.780806
PE02  27134.661497 -11536.362256  -2664.493906    243.177896
PE03  21914.465478  -2334.818704 -19756.117314   -468.856379
PE04  -5295.388890  16688.859046  23870.256348   -845.187660
PE05  25959.935153  13655.216686  -3957.155797   -253.538870
PE07 -14838.774179 -21489.582126 -13943.004495   -579.461939
PE08   4745.460757 -16799.310527 -23906.720242   5946.458398
PE09  15120.659433  21330.247240  13862.206558   5549.995058
PE11   5290.812698  27300.553747  10136.824785   5508.516145
PE12  -7437.977470  27085.819688  -9357.613217   5036.586927
PE13  -5067.041244 -27490.763720  -9742.177518    420.854259
PE14  -8114.596380 -22410.148639  11570.983280  -1552.061854
PE15   7313.194152 -27113.770693   9364.115018    795.330420
PE18  -3568.847643  21712.149933 -20971.248891  -1702.780076
PE19 -23160.234152    197.312448  18435.918008    364.135860
PE21 -22826.881028  -2654.428786  18665.756346   -684.780372
PE24   4056.264786  16418.779716 -24294.196922  -1088.598525
PE25  22691.028266   2812.187420 -18784.318481   -544.811813
PE26 -14797.914915 -10738.592117 -23283.453080   1406.306200
PE27  -5140.977568 -15916.663474  24432.962004   -108.446868
PE30  16510.909617 -19527.807496  14914.835219   2663.371671
PE31 -15443.139468  19710.636588 -15771.732518   -484.965188
PE33 -15353.325275  10764.347233 -22904.150915   -465.657117
PE36  14423.420328  11691.296500  23050.029557   -254.968322
PG01  13436.718305 -18325.465632  13190.638446    583.467907
PG02 -14116.144201  -5227.240983 -21228.663988   -629.222379
PG03  22074.442401 -12413.611864  -7927.315149   -270.737639
PG04  11745.023454  -9733.200832 -21740.508539   -204.219683
PG05 -25691.877878   5370.662517  -4769.174839    -52.664617
PG06  -7836.331206 -18112.546849 -17688.954100     64.406192
PG07   5624.648497 -25676.948491    682.253380    234.727757
PG08  19358.967671    415.768438  18303.384284    -34.443883
PG09    418.647166 -18163.248142 -19432.555546   -359.947643
PG10   6445.963232  13733.266303  21932.003107   -192.216936
PG12 -23028.307451  10712.604948  -7783.747132    -89.695245
PG13 -20346.356984  -9269.607719  14309.158745    177.950344
PG14  -6169.520655 -14168.098889  21602.714838     13.121493
PG15 -19477.568429   2120.451390  17699.557266   -124.979750
PG16  25173.716713   1234.392726  -9328.786776   -381.623087
PG17 -10856.780676 -21909.974590  10789.676813    496.632373
PG18  -4819.558193  25952.334846   2465.054464    328.135735
PG19 -16848.175380 -20593.941225   1138.015601     45.871875
PG20 -21570.463434  -2037.115318 -15215.597595    519.402543
PG21  15422.198287 -10386.757451  19457.303224    139.850194
PG22  24488.928237  -9989.891294    420.828811   -526.483384
PG23  -6668.584121  16558.252193  19620.740740     64.501671
PG24 -14537.785178  14402.368966  16456.071359    221.498650
PG25 -14443.013349  15944.036880 -15659.748850    199.259502
PG26  17942.177732   7680.831159 -18191.860618    128.125732
PG27  21979.869758  10144.793484  11162.821085   -185.259684
PG28 -12378.658585 -11926.103996  20745.193656    511.147621
PG29  -3737.588343  16247.643000 -20704.475176   -403.541156
PG30  -2643.947964 -23726.559308  11455.808885   -467.307885
PG31   9511.928464  16151.484695 -18722.879533   -136.874671
PG32  14763.872016  20872.176786   7644.002088      4.064774
PJ01 -27265.265387  22662.958325  27914.701122     66.469533
PJ02 -36174.126341  20912.344493  -1238.097870     -1.958605
PJ03 -19915.570978  24308.848322 -23497.473060     -1.327128
PJ07 -25388.384311  33659.661938     61.362160      0.027453
PR01 -24847.263518  -5239.394433   2489.679612     84.569934
PR02 -15225.395047   5285.275008  19787.430473    491.398934
PR03   2763.851702  11870.523597  22454.593067     42.007039
PR04  18941.269010  11573.871487  12598.748666    102.210635
PR05  24644.201701   5049.754347  -4290.330960     77.992305
PR07  -3405.123952 -11948.378643 -22236.606684    -41.479291
PR08 -19007.884854 -11549.537165 -12416.650800    -60.655346
PR09  18258.131108 -17736.988726   -799.738295     10.487533
PR11  -6365.009628  -9022.843298  23009.194176     47.409821
PR12 -17963.869049   6238.796172  17026.465601    257.571329
PR13 -18540.123270  17442.017992   1677.484784    -59.824577
PR14  -8062.728930  18512.226023 -15580.426245     68.194734
PR15   6802.376346   8725.914952 -22956.385847    101.799911
PR16  18344.507626  -7640.818952 -16084.032631    -20.461320
PR17   2520.745057  24237.419208  -7455.634988    453.904283
PR18   9605.144110  21675.920927   9477.436861     88.592515
PR19  11433.734920   8817.554608  21019.762302   -157.255293
PR20   6886.889630 -12566.309766  21096.621202    -54.969787
PR21  -3118.710343 -24567.860992   6186.127315   -235.136870
PR22  -9752.403525 -21085.766082 -10451.896893   -130.374335
PR24  -6756.137299  13464.695832 -20565.360626     56.429035
EOF
